OBJECT_NAME,OBJECT_ID,EPOCH,MEAN_MOTION,ECCENTRICITY,INCLINATION,RA_OF_ASC_NODE,ARG_OF_PERICENTER,MEAN_ANOMALY,EPHEMERIS_TYPE,CLASSIFICATION_TYPE,NORAD_CAT_ID,ELEMENT_SET_NO,REV_AT_EPOCH,BSTAR,MEAN_MOTION_DOT,MEAN_MOTION_DDOT
ONEWEB-0473,2022-012AH,2026-07-19T18:46:54.331392,13.10373651,.0001856,87.8814,29.7793,90.6410,269.4930,0,U,51653,999,21357,-.189E-2,-.647E-5,0
ONEWEB-0474,2022-012AJ,2026-07-19T11:14:51.785952,13.10370586,.00016359,87.8822,29.8293,96.9067,263.2247,0,U,51654,999,21352,-.13846546E-2,-.471E-5,0
ONEWEB-0475,2022-012AK,2026-07-19T19:10:30.094752,13.17649240,.0001569,87.9150,359.3854,114.8967,245.2328,0,U,51655,999,21798,.26241E-3,.115E-5,0
ONEWEB-0490,2022-138A,2026-07-19T19:28:43.805568,13.19725257,.0002111,87.9192,298.4726,105.7683,254.3682,0,U,54113,999,18113,-.41889E-3,-.155E-5,0
ONEWEB-0492,2022-138B,2026-07-19T18:15:56.212128,13.19723921,.0002254,87.9184,298.4820,102.3842,257.7543,0,U,54114,999,18113,.12005E-3,.61E-6,0
ONEWEB-0495,2022-138C,2026-07-19T19:33:16.720704,13.19726768,.000235,87.9186,298.4740,116.0686,244.0689,0,U,54115,999,18112,-.64353E-4,-.13E-6,0
ONEWEB-0497,2022-138D,2026-07-19T19:51:27.825696,13.19723542,.0002051,87.9191,298.4654,103.2429,256.8933,0,U,54116,999,18111,.27759E-4,.24E-6,0
ONEWEB-0499,2022-138E,2026-07-19T19:27:35.817408,13.19724736,.000196,87.9185,298.4754,105.6249,254.5101,0,U,54117,999,18112,-.58102E-4,-.1E-6,0
ONEWEB-0500,2022-138F,2026-07-19T19:31:00.885216,13.19726174,.0002063,87.9192,298.4716,99.0216,261.1150,0,U,54118,999,18113,.36983E-4,.28E-6,0
ONEWEB-0501,2022-138G,2026-07-19T18:25:03.588096,13.19726266,.0002191,87.9193,298.4809,111.5288,248.6079,0,U,54119,999,18110,.39749E-4,.29E-6,0
ONEWEB-0502,2022-138H,2026-07-19T19:53:44.082816,13.19723925,.0001975,87.9195,298.4577,107.8084,252.3264,0,U,54120,999,18113,.32875E-4,.26E-6,0
ONEWEB-0503,2022-138J,2026-07-19T19:37:49.578816,13.19726848,.0001736,87.9197,298.4663,99.9761,260.1567,0,U,54121,999,18112,-.13157E-3,-.4E-6,0
ONEWEB-0504,2022-138K,2026-07-19T19:19:37.831008,13.19726352,.0001952,87.9191,298.4731,108.1752,251.9593,0,U,54122,999,18113,-.25182E-4,.3E-7,0
ONEWEB-0505,2022-138L,2026-07-19T19:15:04.223808,13.19723550,.0002113,87.9191,298.4742,113.4676,246.6679,0,U,54123,999,18111,-.20588E-3,-.69E-6,0
ONEWEB-0506,2022-138M,2026-07-19T18:38:42.775008,13.19725522,.0002097,87.9194,298.4771,109.6114,250.5245,0,U,54124,999,18110,.43758E-4,.3E-6,0
ONEWEB-0507,2022-138N,2026-07-19T19:08:15.084384,13.19726593,.0002107,87.9185,298.4821,105.9277,254.2088,0,U,54125,999,18115,-.17423E-3,-.57E-6,0
ONEWEB-0508,2022-138P,2026-07-19T19:03:42.920064,13.19726125,.0002295,87.9186,298.4823,109.4653,250.6728,0,U,54126,999,18113,-.78489E-4,-.18E-6,0
ONEWEB-0509,2022-138Q,2026-07-19T18:27:19.218816,13.19724532,.0002072,87.9196,298.4802,105.2007,254.9355,0,U,54127,999,18110,.14073E-3,.69E-6,0
ONEWEB-0510,2022-138R,2026-07-19T16:58:42.099744,13.20770930,.0001892,87.9178,267.9558,85.8815,274.2534,0,U,54128,999,18357,.25429E-3,.116E-5,0
ONEWEB-0511,2022-138S,2026-07-19T18:22:45.842304,13.19723875,.0001778,87.9193,298.4822,105.0055,255.1274,0,U,54129,999,18113,.15045E-3,.73E-6,0
ONEWEB-0512,2022-138T,2026-07-19T18:11:23.016192,13.19724952,.0001978,87.9184,298.4866,110.4801,249.6545,0,U,54130,999,18110,-.24391E-3,-.85E-6,0
ONEWEB-0513,2022-138U,2026-07-19T19:49:18.977376,13.20269161,.0001789,87.9192,298.4133,127.5417,232.5879,0,U,54131,999,18102,-.14837E-3,-.47E-6,0
ONEWEB-0514,2022-138V,2026-07-19T18:34:08.323680,13.19724650,.0001947,87.9192,298.4800,96.5629,263.5725,0,U,54132,999,18112,-.10575E-3,-.29E-6,0
ONEWEB-0515,2022-138W,2026-07-19T16:39:19.363104,13.20771854,.0002682,87.9184,267.9545,83.5302,276.6136,0,U,54133,999,18359,.60346E-4,.38E-6,0
ONEWEB-0516,2022-138X,2026-07-19T19:46:55.435872,13.19723751,.0002182,87.9187,298.4735,101.8146,258.3232,0,U,54134,999,18113,-.56707E-4,-.1E-6,0
ONEWEB-0517,2022-138Y,2026-07-19T19:17:21.388992,13.19726351,.0001689,87.9191,298.4725,100.2588,259.8736,0,U,54135,999,18113,-.484E-4,-.6E-7,0
ONEWEB-0518,2022-138Z,2026-07-19T19:44:39.411168,13.19724070,.0002242,87.9187,298.4758,99.8805,260.2581,0,U,54136,999,18113,-.73353E-4,-.16E-6,0
ONEWEB-0519,2022-138AA,2026-07-19T18:31:51.555936,13.19723806,.000183,87.9191,298.4798,99.0971,261.0369,0,U,54137,999,18113,.21168E-3,.98E-6,0
ONEWEB-0520,2022-138AB,2026-07-19T19:21:54.476928,13.19725102,.0002118,87.9193,298.4733,107.2032,252.9333,0,U,54138,999,18112,-.43827E-3,-.163E-5,0
ONEWEB-0521,2022-138AC,2026-07-19T18:20:28.437792,13.19725419,.0001797,87.9198,298.4709,97.2948,262.8389,0,U,54139,999,18106,-.19612E-3,-.66E-6,0
