ONEWEB-0473             
1 51653U 22012AH  26200.78257328 -.00000647  00000+0 -18900-2 0  9997
2 51653  87.8814  29.7793 0001856  90.6410 269.4930 13.10373651213576
ONEWEB-0474             
1 51654U 22012AJ  26200.46865493 -.00000471  00000+0 -13847-2 0  9991
2 51654  87.8822  29.8293 0001635  96.9067 263.2247 13.10370586213526
ONEWEB-0475             
1 51655U 22012AK  26200.79895943  .00000115  00000+0  26241-3 0  9997
2 51655  87.9150 359.3854 0001569 114.8967 245.2328 13.17649240217988
ONEWEB-0490             
1 54113U 22138A   26200.81161812 -.00000155  00000+0 -41889-3 0  9993
2 54113  87.9192 298.4726 0002111 105.7683 254.3682 13.19725257181131
ONEWEB-0492             
1 54114U 22138B   26200.76106727  .00000061  00000+0  12005-3 0  9994
2 54114  87.9184 298.4820 0002254 102.3842 257.7543 13.19723921181135
ONEWEB-0495             
1 54115U 22138C   26200.81477686 -.00000013  00000+0 -64353-4 0  9999
2 54115  87.9186 298.4740 0002350 116.0686 244.0689 13.19726768181125
ONEWEB-0497             
1 54116U 22138D   26200.82740539  .00000024  00000+0  27759-4 0  9990
2 54116  87.9191 298.4654 0002051 103.2429 256.8933 13.19723542181116
ONEWEB-0499             
1 54117U 22138E   26200.81083122 -.00000010  00000+0 -58102-4 0  9991
2 54117  87.9185 298.4754 0001960 105.6249 254.5101 13.19724736181124
ONEWEB-0500             
1 54118U 22138F   26200.81320469  .00000028  00000+0  36983-4 0  9990
2 54118  87.9192 298.4716 0002063  99.0216 261.1150 13.19726174181133
ONEWEB-0501             
1 54119U 22138G   26200.76740264  .00000029  00000+0  39749-4 0  9998
2 54119  87.9193 298.4809 0002191 111.5288 248.6079 13.19726266181108
ONEWEB-0502             
1 54120U 22138H   26200.82898244  .00000026  00000+0  32875-4 0  9999
2 54120  87.9195 298.4577 0001975 107.8084 252.3264 13.19723925181135
ONEWEB-0503             
1 54121U 22138J   26200.81793494 -.00000040  00000+0 -13157-3 0  9999
2 54121  87.9197 298.4663 0001736  99.9761 260.1567 13.19726848181121
ONEWEB-0504             
1 54122U 22138K   26200.80529897  .00000003  00000+0 -25182-4 0  9993
2 54122  87.9191 298.4731 0001952 108.1752 251.9593 13.19726352181133
ONEWEB-0505             
1 54123U 22138L   26200.80213222 -.00000069  00000+0 -20588-3 0  9993
2 54123  87.9191 298.4742 0002113 113.4676 246.6679 13.19723550181111
ONEWEB-0506             
1 54124U 22138M   26200.77688397  .00000030  00000+0  43758-4 0  9990
2 54124  87.9194 298.4771 0002097 109.6114 250.5245 13.19725522181105
ONEWEB-0507             
1 54125U 22138N   26200.79739681 -.00000057  00000+0 -17423-3 0  9996
2 54125  87.9185 298.4821 0002107 105.9277 254.2088 13.19726593181153
ONEWEB-0508             
1 54126U 22138P   26200.79424676 -.00000018  00000+0 -78489-4 0  9999
2 54126  87.9186 298.4823 0002295 109.4653 250.6728 13.19726125181132
ONEWEB-0509             
1 54127U 22138Q   26200.76897244  .00000069  00000+0  14073-3 0  9994
2 54127  87.9196 298.4802 0002072 105.2007 254.9355 13.19724532181101
ONEWEB-0510             
1 54128U 22138R   26200.70743171  .00000116  00000+0  25429-3 0  9998
2 54128  87.9178 267.9558 0001892  85.8815 274.2534 13.20770930183572
ONEWEB-0511             
1 54129U 22138S   26200.76580836  .00000073  00000+0  15045-3 0  9997
2 54129  87.9193 298.4822 0001778 105.0055 255.1274 13.19723875181130
ONEWEB-0512             
1 54130U 22138T   26200.75790528 -.00000085  00000+0 -24391-3 0  9998
2 54130  87.9184 298.4866 0001978 110.4801 249.6545 13.19724952181104
ONEWEB-0513             
1 54131U 22138U   26200.82591409 -.00000047  00000+0 -14837-3 0  9996
2 54131  87.9192 298.4133 0001789 127.5417 232.5879 13.20269161181023
ONEWEB-0514             
1 54132U 22138V   26200.77370745 -.00000029  00000+0 -10575-3 0  9994
2 54132  87.9192 298.4800 0001947  96.5629 263.5725 13.19724650181123
ONEWEB-0515             
1 54133U 22138W   26200.69397411  .00000038  00000+0  60346-4 0  9995
2 54133  87.9184 267.9545 0002682  83.5302 276.6136 13.20771854183597
ONEWEB-0516             
1 54134U 22138X   26200.82425273 -.00000010  00000+0 -56707-4 0  9997
2 54134  87.9187 298.4735 0002182 101.8146 258.3232 13.19723751181139
ONEWEB-0517             
1 54135U 22138Y   26200.80371978 -.00000006  00000+0 -48400-4 0  9994
2 54135  87.9191 298.4725 0001689 100.2588 259.8736 13.19726351181132
ONEWEB-0518             
1 54136U 22138Z   26200.82267837 -.00000016  00000+0 -73353-4 0  9991
2 54136  87.9187 298.4758 0002242  99.8805 260.2581 13.19724070181135
ONEWEB-0519             
1 54137U 22138AA  26200.77212449  .00000098  00000+0  21168-3 0  9999
2 54137  87.9191 298.4798 0001830  99.0971 261.0369 13.19723806181132
ONEWEB-0520             
1 54138U 22138AB  26200.80688052 -.00000163  00000+0 -43827-3 0  9992
2 54138  87.9193 298.4733 0002118 107.2032 252.9333 13.19725102181124
ONEWEB-0521             
1 54139U 22138AC  26200.76421803 -.00000066  00000+0 -19612-3 0  9994
2 54139  87.9198 298.4709 0001797  97.2948 262.8389 13.19725419181064
